[{"OBJECT_NAME":"ONEWEB-0387","OBJECT_ID":"2021-090AL","EPOCH":"2026-04-26T11:21:28.697184","MEAN_MOTION":13.20770647,"ECCENTRICITY":0.0001623,"INCLINATION":87.9131,"RA_OF_ASC_NODE":284.7773,"ARG_OF_PERICENTER":104.8881,"MEAN_ANOMALY":255.2432,"EPHEMERIS_TYPE":0,"CLASSIFICATION_TYPE":"U","NORAD_CAT_ID":49313,"ELEMENT_SET_NO":999,"REV_AT_EPOCH":22299,"BSTAR":0.00018570999999999998,"MEAN_MOTION_DOT":8.8e-07,"MEAN_MOTION_DDOT":0.0},{"OBJECT_NAME":"ONEWEB-0388","OBJECT_ID":"2021-090AM","EPOCH":"2026-04-26T11:21:35.947008","MEAN_MOTION":13.1972388,"ECCENTRICITY":0.000187,"INCLINATION":87.9153,"RA_OF_ASC_NODE":315.2836,"ARG_OF_PERICENTER":91.8339,"MEAN_ANOMALY":268.3008,"EPHEMERIS_TYPE":0,"CLASSIFICATION_TYPE":"U","NORAD_CAT_ID":49314,"ELEMENT_SET_NO":999,"REV_AT_EPOCH":21959,"BSTAR":-7.0362e-05,"MEAN_MOTION_DOT":-1.5e-07,"MEAN_MOTION_DDOT":0.0},{"OBJECT_NAME":"ONEWEB-0389","OBJECT_ID":"2021-132A","EPOCH":"2026-04-26T09:50:45.714912","MEAN_MOTION":13.1764871,"ECCENTRICITY":0.0001721,"INCLINATION":87.9183,"RA_OF_ASC_NODE":16.1566,"ARG_OF_PERICENTER":91.8066,"MEAN_ANOMALY":268.3262,"EPHEMERIS_TYPE":0,"CLASSIFICATION_TYPE":"U","NORAD_CAT_ID":50469,"ELEMENT_SET_NO":999,"REV_AT_EPOCH":21126,"BSTAR":6.3964e-05,"MEAN_MOTION_DOT":3.8e-07,"MEAN_MOTION_DDOT":0.0},{"OBJECT_NAME":"ONEWEB-0390","OBJECT_ID":"2021-132B","EPOCH":"2026-04-26T09:53:10.690656","MEAN_MOTION":13.1764828,"ECCENTRICITY":0.0001634,"INCLINATION":87.9183,"RA_OF_ASC_NODE":16.1564,"ARG_OF_PERICENTER":73.802,"MEAN_ANOMALY":286.3291,"EPHEMERIS_TYPE":0,"CLASSIFICATION_TYPE":"U","NORAD_CAT_ID":50470,"ELEMENT_SET_NO":999,"REV_AT_EPOCH":21126,"BSTAR":0.00011901,"MEAN_MOTION_DOT":5.9e-07,"MEAN_MOTION_DDOT":0.0},{"OBJECT_NAME":"ONEWEB-0391","OBJECT_ID":"2021-132C","EPOCH":"2026-04-26T09:55:37.035840","MEAN_MOTION":13.17649283,"ECCENTRICITY":0.0001305,"INCLINATION":87.9184,"RA_OF_ASC_NODE":16.1659,"ARG_OF_PERICENTER":106.7021,"MEAN_ANOMALY":253.4254,"EPHEMERIS_TYPE":0,"CLASSIFICATION_TYPE":"U","NORAD_CAT_ID":50471,"ELEMENT_SET_NO":999,"REV_AT_EPOCH":21126,"BSTAR":0.00030111,"MEAN_MOTION_DOT":1.3e-06,"MEAN_MOTION_DDOT":0.0},{"OBJECT_NAME":"ONEWEB-0392","OBJECT_ID":"2021-132D","EPOCH":"2026-04-26T10:39:21.803040","MEAN_MOTION":13.17649147,"ECCENTRICITY":0.0001634,"INCLINATION":87.919,"RA_OF_ASC_NODE":16.1241,"ARG_OF_PERICENTER":93.0019,"MEAN_ANOMALY":267.13,"EPHEMERIS_TYPE":0,"CLASSIFICATION_TYPE":"U","NORAD_CAT_ID":50472,"ELEMENT_SET_NO":999,"REV_AT_EPOCH":21130,"BSTAR":7.6238e-05,"MEAN_MOTION_DOT":4.2e-07,"MEAN_MOTION_DDOT":0.0},{"OBJECT_NAME":"ONEWEB-0393","OBJECT_ID":"2021-132E","EPOCH":"2026-04-26T10:04:07.815360","MEAN_MOTION":13.17652337,"ECCENTRICITY":0.0001723,"INCLINATION":87.9184,"RA_OF_ASC_NODE":16.1502,"ARG_OF_PERICENTER":85.1564,"MEAN_ANOMALY":274.9764,"EPHEMERIS_TYPE":0,"CLASSIFICATION_TYPE":"U","NORAD_CAT_ID":50473,"ELEMENT_SET_NO":999,"REV_AT_EPOCH":21129,"BSTAR":0.00014656,"MEAN_MOTION_DOT":7e-07,"MEAN_MOTION_DDOT":0.0},{"OBJECT_NAME":"ONEWEB-0394","OBJECT_ID":"2021-132F","EPOCH":"2026-04-26T08:24:16.097184","MEAN_MOTION":13.1865088,"ECCENTRICITY":0.0001798,"INCLINATION":87.9206,"RA_OF_ASC_NODE":345.7519,"ARG_OF_PERICENTER":92.0838,"MEAN_ANOMALY":268.05,"EPHEMERIS_TYPE":0,"CLASSIFICATION_TYPE":"U","NORAD_CAT_ID":50474,"ELEMENT_SET_NO":999,"REV_AT_EPOCH":21476,"BSTAR":0.00013355,"MEAN_MOTION_DOT":6.6e-07,"MEAN_MOTION_DDOT":0.0},{"OBJECT_NAME":"ONEWEB-0395","OBJECT_ID":"2021-132G","EPOCH":"2026-04-26T12:20:20.195232","MEAN_MOTION":13.11419841,"ECCENTRICITY":0.0001639,"INCLINATION":87.8919,"RA_OF_ASC_NODE":31.3429,"ARG_OF_PERICENTER":80.4209,"MEAN_ANOMALY":279.7104,"EPHEMERIS_TYPE":0,"CLASSIFICATION_TYPE":"U","NORAD_CAT_ID":50475,"ELEMENT_SET_NO":999,"REV_AT_EPOCH":20894,"BSTAR":0.001333,"MEAN_MOTION_DOT":4.85e-06,"MEAN_MOTION_DDOT":0.0},{"OBJECT_NAME":"ONEWEB-0396","OBJECT_ID":"2021-132H","EPOCH":"2026-04-26T08:14:39.192288","MEAN_MOTION":13.18670569,"ECCENTRICITY":0.0001728,"INCLINATION":87.9207,"RA_OF_ASC_NODE":345.7656,"ARG_OF_PERICENTER":87.9912,"MEAN_ANOMALY":272.1418,"EPHEMERIS_TYPE":0,"CLASSIFICATION_TYPE":"U","NORAD_CAT_ID":50476,"ELEMENT_SET_NO":999,"REV_AT_EPOCH":21480,"BSTAR":0.00026785,"MEAN_MOTION_DOT":1.18e-06,"MEAN_MOTION_DDOT":0.0},{"OBJECT_NAME":"ONEWEB-0397","OBJECT_ID":"2021-132J","EPOCH":"2026-04-26T08:36:14.296320","MEAN_MOTION":13.1862187,"ECCENTRICITY":0.000191,"INCLINATION":87.9206,"RA_OF_ASC_NODE":345.7628,"ARG_OF_PERICENTER":89.4999,"MEAN_ANOMALY":270.6352,"EPHEMERIS_TYPE":0,"CLASSIFICATION_TYPE":"U","NORAD_CAT_ID":50477,"ELEMENT_SET_NO":999,"REV_AT_EPOCH":21478,"BSTAR":-0.0008792299999999999,"MEAN_MOTION_DOT":-3.33e-06,"MEAN_MOTION_DDOT":0.0},{"OBJECT_NAME":"ONEWEB-0398","OBJECT_ID":"2021-132K","EPOCH":"2026-04-26T11:33:56.064960","MEAN_MOTION":13.11419623,"ECCENTRICITY":0.0001598,"INCLINATION":87.8931,"RA_OF_ASC_NODE":31.3344,"ARG_OF_PERICENTER":72.0969,"MEAN_ANOMALY":288.0333,"EPHEMERIS_TYPE":0,"CLASSIFICATION_TYPE":"U","NORAD_CAT_ID":50478,"ELEMENT_SET_NO":999,"REV_AT_EPOCH":20883,"BSTAR":-0.0013577,"MEAN_MOTION_DOT":-4.69e-06,"MEAN_MOTION_DDOT":0.0},{"OBJECT_NAME":"ONEWEB-0399","OBJECT_ID":"2021-132L","EPOCH":"2026-04-26T11:14:25.059840","MEAN_MOTION":13.11415714,"ECCENTRICITY":0.0001907,"INCLINATION":87.8931,"RA_OF_ASC_NODE":31.3477,"ARG_OF_PERICENTER":94.386,"MEAN_ANOMALY":265.7486,"EPHEMERIS_TYPE":0,"CLASSIFICATION_TYPE":"U","NORAD_CAT_ID":50479,"ELEMENT_SET_NO":999,"REV_AT_EPOCH":20882,"BSTAR":-0.00065033,"MEAN_MOTION_DOT":-2.18e-06,"MEAN_MOTION_DDOT":0.0},{"OBJECT_NAME":"ONEWEB-0400","OBJECT_ID":"2021-132M","EPOCH":"2026-04-26T08:05:06.317088","MEAN_MOTION":13.18689117,"ECCENTRICITY":0.0001642,"INCLINATION":87.9204,"RA_OF_ASC_NODE":345.757,"ARG_OF_PERICENTER":79.0935,"MEAN_ANOMALY":281.0381,"EPHEMERIS_TYPE":0,"CLASSIFICATION_TYPE":"U","NORAD_CAT_ID":50480,"ELEMENT_SET_NO":999,"REV_AT_EPOCH":21477,"BSTAR":0.0011917,"MEAN_MOTION_DOT":4.83e-06,"MEAN_MOTION_DDOT":0.0},{"OBJECT_NAME":"ONEWEB-0401","OBJECT_ID":"2021-132N","EPOCH":"2026-04-25T16:46:20.215776","MEAN_MOTION":13.18547081,"ECCENTRICITY":0.0001946,"INCLINATION":87.9208,"RA_OF_ASC_NODE":345.8802,"ARG_OF_PERICENTER":81.8468,"MEAN_ANOMALY":278.2885,"EPHEMERIS_TYPE":0,"CLASSIFICATION_TYPE":"U","NORAD_CAT_ID":50481,"ELEMENT_SET_NO":999,"REV_AT_EPOCH":21469,"BSTAR":-0.0013107,"MEAN_MOTION_DOT":-5.03e-06,"MEAN_MOTION_DDOT":0.0},{"OBJECT_NAME":"ONEWEB-0402","OBJECT_ID":"2021-132P","EPOCH":"2026-04-26T08:17:03.461280","MEAN_MOTION":13.1866358,"ECCENTRICITY":0.0002287,"INCLINATION":87.9204,"RA_OF_ASC_NODE":345.7424,"ARG_OF_PERICENTER":85.7625,"MEAN_ANOMALY":274.3769,"EPHEMERIS_TYPE":0,"CLASSIFICATION_TYPE":"U","NORAD_CAT_ID":50482,"ELEMENT_SET_NO":999,"REV_AT_EPOCH":21480,"BSTAR":9.413200000000001e-05,"MEAN_MOTION_DOT":5e-07,"MEAN_MOTION_DDOT":0.0}]