ONEWEB-0387             
1 49313U 21090AL  26116.47324881  .00000088  00000+0  18571-3 0  9995
2 49313  87.9131 284.7773 0001623 104.8881 255.2432 13.20770647222995
ONEWEB-0388             
1 49314U 21090AM  26116.47333272 -.00000015  00000+0 -70362-4 0  9999
2 49314  87.9153 315.2836 0001870  91.8339 268.3008 13.19723880219598
ONEWEB-0389             
1 50469U 21132A   26116.41025133  .00000038  00000+0  63964-4 0  9990
2 50469  87.9183  16.1566 0001721  91.8066 268.3262 13.17648710211267
ONEWEB-0390             
1 50470U 21132B   26116.41192929  .00000059  00000+0  11901-3 0  9996
2 50470  87.9183  16.1564 0001634  73.8020 286.3291 13.17648280211264
ONEWEB-0391             
1 50471U 21132C   26116.41362310  .00000130  00000+0  30111-3 0  9994
2 50471  87.9184  16.1659 0001305 106.7021 253.4254 13.17649283211261
ONEWEB-0392             
1 50472U 21132D   26116.44400235  .00000042  00000+0  76238-4 0  9990
2 50472  87.9190  16.1241 0001634  93.0019 267.1300 13.17649147211304
ONEWEB-0393             
1 50473U 21132E   26116.41953490  .00000070  00000+0  14656-3 0  9990
2 50473  87.9184  16.1502 0001723  85.1564 274.9764 13.17652337211297
ONEWEB-0394             
1 50474U 21132F   26116.35018631  .00000066  00000+0  13355-3 0  9993
2 50474  87.9206 345.7519 0001798  92.0838 268.0500 13.18650880214764
ONEWEB-0395             
1 50475U 21132G   26116.51412263  .00000485  00000+0  13330-2 0  9998
2 50475  87.8919  31.3429 0001639  80.4209 279.7104 13.11419841208945
ONEWEB-0396             
1 50476U 21132H   26116.34350917  .00000118  00000+0  26785-3 0  9999
2 50476  87.9207 345.7656 0001728  87.9912 272.1418 13.18670569214803
ONEWEB-0397             
1 50477U 21132J   26116.35849880 -.00000333  00000+0 -87923-3 0  9995
2 50477  87.9206 345.7628 0001910  89.4999 270.6352 13.18621870214785
ONEWEB-0398             
1 50478U 21132K   26116.48189890 -.00000469  00000+0 -13577-2 0  9991
2 50478  87.8931  31.3344 0001598  72.0969 288.0333 13.11419623208835
ONEWEB-0399             
1 50479U 21132L   26116.46834560 -.00000218  00000+0 -65033-3 0  9998
2 50479  87.8931  31.3477 0001907  94.3860 265.7486 13.11415714208821
ONEWEB-0400             
1 50480U 21132M   26116.33687867  .00000483  00000+0  11917-2 0  9995
2 50480  87.9204 345.7570 0001642  79.0935 281.0381 13.18689117214775
ONEWEB-0401             
1 50481U 21132N   26115.69884509 -.00000503  00000+0 -13107-2 0  9994
2 50481  87.9208 345.8802 0001946  81.8468 278.2885 13.18547081214699
ONEWEB-0402             
1 50482U 21132P   26116.34517895  .00000050  00000+0  94132-4 0  9993
2 50482  87.9204 345.7424 0002287  85.7625 274.3769 13.18663580214806
